{
  "links" : {
    "next" : "https://api.nasa.gov/neo/rest/v1/feed?start_date=2001-02-23&end_date=2001-02-23&detailed=true&api_key=t0TVs3DtDT2H8Oy2Zy8m2eVrNsAVKAexjcZXUckd",
    "prev" : "https://api.nasa.gov/neo/rest/v1/feed?start_date=2001-02-21&end_date=2001-02-21&detailed=true&api_key=t0TVs3DtDT2H8Oy2Zy8m2eVrNsAVKAexjcZXUckd",
    "self" : "https://api.nasa.gov/neo/rest/v1/feed?start_date=2001-02-22&end_date=2001-02-22&detailed=true&api_key=t0TVs3DtDT2H8Oy2Zy8m2eVrNsAVKAexjcZXUckd"
  },
  "element_count" : 5,
  "near_earth_objects" : {
    "2001-02-22" : [ {
      "links" : {
        "self" : "https://api.nasa.gov/neo/rest/v1/neo/2138947?api_key=t0TVs3DtDT2H8Oy2Zy8m2eVrNsAVKAexjcZXUckd"
      },
      "neo_reference_id" : "2138947",
      "name" : "138947 (2001 BA40)",
      "nasa_jpl_url" : "http://ssd.jpl.nasa.gov/sbdb.cgi?sstr=2138947",
      "absolute_magnitude_h" : 18.7,
      "estimated_diameter" : {
        "kilometers" : {
          "estimated_diameter_min" : 0.4836764882,
          "estimated_diameter_max" : 1.0815335068
        },
        "meters" : {
          "estimated_diameter_min" : 483.6764882185,
          "estimated_diameter_max" : 1081.533506775
        },
        "miles" : {
          "estimated_diameter_min" : 0.3005425432,
          "estimated_diameter_max" : 0.6720335566
        },
        "feet" : {
          "estimated_diameter_min" : 1586.8651696069,
          "estimated_diameter_max" : 3548.3383903678
        }
      },
      "is_potentially_hazardous_asteroid" : false,
      "close_approach_data" : [ {
        "close_approach_date" : "2001-02-22",
        "epoch_date_close_approach" : 982828800000,
        "relative_velocity" : {
          "kilometers_per_second" : "6.8555519168",
          "kilometers_per_hour" : "24679.9869006496",
          "miles_per_hour" : "15335.1840827953"
        },
        "miss_distance" : {
          "astronomical" : "0.3191672986",
          "lunar" : "124.1560745239",
          "kilometers" : "47746748",
          "miles" : "29668452"
        },
        "orbiting_body" : "Earth"
      } ],
      "orbital_data" : {
        "orbit_id" : "102",
        "orbit_determination_date" : "2017-04-06 09:27:43",
        "orbit_uncertainty" : "0",
        "minimum_orbit_intersection" : ".180743",
        "jupiter_tisserand_invariant" : "5.525",
        "epoch_osculation" : "2458000.5",
        "eccentricity" : ".2537772163312964",
        "semi_major_axis" : "1.118955315441115",
        "inclination" : "12.84496414914382",
        "ascending_node_longitude" : "270.9065027812587",
        "orbital_period" : "432.3321596876178",
        "perihelion_distance" : ".8349899502893611",
        "perihelion_argument" : "359.9930979300082",
        "aphelion_distance" : "1.402920680592868",
        "perihelion_time" : "2458129.443640098838",
        "mean_anomaly" : "252.6295224738258",
        "mean_motion" : ".8326930854741839",
        "equinox" : "J2000"
      }
    }, {
      "links" : {
        "self" : "https://api.nasa.gov/neo/rest/v1/neo/3026912?api_key=t0TVs3DtDT2H8Oy2Zy8m2eVrNsAVKAexjcZXUckd"
      },
      "neo_reference_id" : "3026912",
      "name" : "(2000 AG6)",
      "nasa_jpl_url" : "http://ssd.jpl.nasa.gov/sbdb.cgi?sstr=3026912",
      "absolute_magnitude_h" : 25.3,
      "estimated_diameter" : {
        "kilometers" : {
          "estimated_diameter_min" : 0.0231502122,
          "estimated_diameter_max" : 0.0517654482
        },
        "meters" : {
          "estimated_diameter_min" : 23.150212221,
          "estimated_diameter_max" : 51.7654482198
        },
        "miles" : {
          "estimated_diameter_min" : 0.0143848705,
          "estimated_diameter_max" : 0.0321655483
        },
        "feet" : {
          "estimated_diameter_min" : 75.9521422633,
          "estimated_diameter_max" : 169.8341531374
        }
      },
      "is_potentially_hazardous_asteroid" : false,
      "close_approach_data" : [ {
        "close_approach_date" : "2001-02-22",
        "epoch_date_close_approach" : 982828800000,
        "relative_velocity" : {
          "kilometers_per_second" : "4.5172601007",
          "kilometers_per_hour" : "16262.1363625218",
          "miles_per_hour" : "10104.659119257"
        },
        "miss_distance" : {
          "astronomical" : "0.1421405493",
          "lunar" : "55.2926750183",
          "kilometers" : "21263924",
          "miles" : "13212790"
        },
        "orbiting_body" : "Earth"
      } ],
      "orbital_data" : {
        "orbit_id" : "11",
        "orbit_determination_date" : "2017-04-06 09:17:11",
        "orbit_uncertainty" : "5",
        "minimum_orbit_intersection" : ".00435013",
        "jupiter_tisserand_invariant" : "5.983",
        "epoch_osculation" : "2458000.5",
        "eccentricity" : ".1895232834965062",
        "semi_major_axis" : "1.01708776980344",
        "inclination" : "2.438015626453526",
        "ascending_node_longitude" : "282.9649755845822",
        "orbital_period" : "374.6589183614882",
        "perihelion_distance" : ".8243259560661537",
        "perihelion_argument" : "276.5882248799362",
        "aphelion_distance" : "1.209849583540727",
        "perihelion_time" : "2457991.831632532894",
        "mean_anomaly" : "8.329208608740746",
        "mean_motion" : ".9608739639093694",
        "equinox" : "J2000"
      }
    }, {
      "links" : {
        "self" : "https://api.nasa.gov/neo/rest/v1/neo/3273787?api_key=t0TVs3DtDT2H8Oy2Zy8m2eVrNsAVKAexjcZXUckd"
      },
      "neo_reference_id" : "3273787",
      "name" : "(2005 ER70)",
      "nasa_jpl_url" : "http://ssd.jpl.nasa.gov/sbdb.cgi?sstr=3273787",
      "absolute_magnitude_h" : 24.7,
      "estimated_diameter" : {
        "kilometers" : {
          "estimated_diameter_min" : 0.0305179233,
          "estimated_diameter_max" : 0.0682401509
        },
        "meters" : {
          "estimated_diameter_min" : 30.5179232594,
          "estimated_diameter_max" : 68.2401509401
        },
        "miles" : {
          "estimated_diameter_min" : 0.0189629525,
          "estimated_diameter_max" : 0.0424024508
        },
        "feet" : {
          "estimated_diameter_min" : 100.1244233463,
          "estimated_diameter_max" : 223.8850168104
        }
      },
      "is_potentially_hazardous_asteroid" : false,
      "close_approach_data" : [ {
        "close_approach_date" : "2001-02-22",
        "epoch_date_close_approach" : 982828800000,
        "relative_velocity" : {
          "kilometers_per_second" : "18.6798468352",
          "kilometers_per_hour" : "67247.448606778",
          "miles_per_hour" : "41784.9493856949"
        },
        "miss_distance" : {
          "astronomical" : "0.4383518468",
          "lunar" : "170.5188598633",
          "kilometers" : "65576504",
          "miles" : "40747348"
        },
        "orbiting_body" : "Earth"
      } ],
      "orbital_data" : {
        "orbit_id" : "11",
        "orbit_determination_date" : "2017-04-06 09:11:19",
        "orbit_uncertainty" : "7",
        "minimum_orbit_intersection" : ".0248833",
        "jupiter_tisserand_invariant" : "5.188",
        "epoch_osculation" : "2458000.5",
        "eccentricity" : ".2230377756540283",
        "semi_major_axis" : "1.224715873468627",
        "inclination" : "6.835071866169407",
        "ascending_node_longitude" : "349.5524880591532",
        "orbital_period" : "495.0527153939995",
        "perihelion_distance" : ".9515579692420038",
        "perihelion_argument" : "236.2454471307884",
        "aphelion_distance" : "1.497873777695249",
        "perihelion_time" : "2457945.279936075457",
        "mean_anomaly" : "40.15577007190856",
        "mean_motion" : ".72719528406886",
        "equinox" : "J2000"
      }
    } ]
  }
}